{
  "norad_id": 60454,
  "name": "EOS-08",
  "history": [
    {
      "epoch": "2026-03-26T08:08:34.526400",
      "apogee_km": 432.72973439609723,
      "perigee_km": 428.581409433732,
      "latitude_deg": 9.165138803853209,
      "longitude_deg": 65.97169600008056,
      "semi_major_axis_km": 6808.792571914914,
      "eccentricity": 0.00030463,
      "inclination_deg": 37.378,
      "raan_deg": 221.2727,
      "arg_perigee_deg": 325.4356,
      "mean_anomaly_deg": 34.621,
      "mean_motion_rev_day": 15.45245923
    }
  ]
}